CCSDS_OMM_VERS = 2.0
CREATION_DATE  = 
ORIGINATOR     = 

OBJECT_NAME    = ALSAT-3A
OBJECT_ID      = 2026-009A
CENTER_NAME    = EARTH
REF_FRAME      = TEME
TIME_SYSTEM    = UTC
MEAN_ELEMENT_THEORY = SGP/SGP4

EPOCH          = 2026-02-13T18:29:30.026688
MEAN_MOTION    = 15.23525086
ECCENTRICITY   = .00129026
INCLINATION    = 97.4676
RA_OF_ASC_NODE = 119.4053
ARG_OF_PERICENTER = 152.9770
MEAN_ANOMALY   = 207.2141

EPHEMERIS_TYPE = 0
CLASSIFICATION_TYPE = U
NORAD_CAT_ID   = 67474
ELEMENT_SET_NO = 999
REV_AT_EPOCH   = 448
BSTAR          = .26693508E-3
MEAN_MOTION_DOT = .6318E-4
MEAN_MOTION_DDOT = 0

CCSDS_OMM_VERS = 2.0
CREATION_DATE  = 
ORIGINATOR     = 

OBJECT_NAME    = CZ-2C R/B
OBJECT_ID      = 2026-009B
CENTER_NAME    = EARTH
REF_FRAME      = TEME
TIME_SYSTEM    = UTC
MEAN_ELEMENT_THEORY = SGP/SGP4

EPOCH          = 2026-02-13T21:42:04.963968
MEAN_MOTION    = 15.03160037
ECCENTRICITY   = .01003438
INCLINATION    = 97.1734
RA_OF_ASC_NODE = 117.2036
ARG_OF_PERICENTER = 120.9114
MEAN_ANOMALY   = 240.2025

EPHEMERIS_TYPE = 0
CLASSIFICATION_TYPE = U
NORAD_CAT_ID   = 67475
ELEMENT_SET_NO = 999
REV_AT_EPOCH   = 450
BSTAR          = .17537075E-3
MEAN_MOTION_DOT = .2585E-4
MEAN_MOTION_DDOT = 0

CCSDS_OMM_VERS = 2.0
CREATION_DATE  = 
ORIGINATOR     = 

OBJECT_NAME    = TIANQI-37
OBJECT_ID      = 2026-010A
CENTER_NAME    = EARTH
REF_FRAME      = TEME
TIME_SYSTEM    = UTC
MEAN_ELEMENT_THEORY = SGP/SGP4

EPOCH          = 2026-02-08T06:39:39.190752
MEAN_MOTION    = 14.13528441
ECCENTRICITY   = .0012909
INCLINATION    = 44.9825
RA_OF_ASC_NODE = 296.6529
ARG_OF_PERICENTER = 70.2546
MEAN_ANOMALY   = 289.9683

EPHEMERIS_TYPE = 0
CLASSIFICATION_TYPE = U
NORAD_CAT_ID   = 67476
ELEMENT_SET_NO = 999
REV_AT_EPOCH   = 332
BSTAR          = .15719E-3
MEAN_MOTION_DOT = .165E-5
MEAN_MOTION_DDOT = 0

CCSDS_OMM_VERS = 2.0
CREATION_DATE  = 
ORIGINATOR     = 

OBJECT_NAME    = TIANQI-38
OBJECT_ID      = 2026-010B
CENTER_NAME    = EARTH
REF_FRAME      = TEME
TIME_SYSTEM    = UTC
MEAN_ELEMENT_THEORY = SGP/SGP4

EPOCH          = 2026-02-08T06:33:16.657344
MEAN_MOTION    = 14.13905796
ECCENTRICITY   = .0011754
INCLINATION    = 44.9788
RA_OF_ASC_NODE = 296.6199
ARG_OF_PERICENTER = 75.6443
MEAN_ANOMALY   = 284.5700

EPHEMERIS_TYPE = 0
CLASSIFICATION_TYPE = U
NORAD_CAT_ID   = 67477
ELEMENT_SET_NO = 999
REV_AT_EPOCH   = 332
BSTAR          = .17865E-3
MEAN_MOTION_DOT = .208E-5
MEAN_MOTION_DDOT = 0

CCSDS_OMM_VERS = 2.0
CREATION_DATE  = 
ORIGINATOR     = 

OBJECT_NAME    = TIANQI-39
OBJECT_ID      = 2026-010C
CENTER_NAME    = EARTH
REF_FRAME      = TEME
TIME_SYSTEM    = UTC
MEAN_ELEMENT_THEORY = SGP/SGP4

EPOCH          = 2026-02-08T10:04:48.152928
MEAN_MOTION    = 14.13055230
ECCENTRICITY   = .00164883
INCLINATION    = 44.9839
RA_OF_ASC_NODE = 296.0175
ARG_OF_PERICENTER = 83.0314
MEAN_ANOMALY   = 277.2399

EPHEMERIS_TYPE = 0
CLASSIFICATION_TYPE = U
NORAD_CAT_ID   = 67478
ELEMENT_SET_NO = 999
REV_AT_EPOCH   = 334
BSTAR          = .1513172E-3
MEAN_MOTION_DOT = .151E-5
MEAN_MOTION_DDOT = 0

CCSDS_OMM_VERS = 2.0
CREATION_DATE  = 
ORIGINATOR     = 

OBJECT_NAME    = TIANQI-40
OBJECT_ID      = 2026-010D
CENTER_NAME    = EARTH
REF_FRAME      = TEME
TIME_SYSTEM    = UTC
MEAN_ELEMENT_THEORY = SGP/SGP4

EPOCH          = 2026-02-09T04:36:40.071744
MEAN_MOTION    = 14.13182235
ECCENTRICITY   = .0011741
INCLINATION    = 44.9786
RA_OF_ASC_NODE = 292.4342
ARG_OF_PERICENTER = 80.4003
MEAN_ANOMALY   = 279.8161

EPHEMERIS_TYPE = 0
CLASSIFICATION_TYPE = U
NORAD_CAT_ID   = 67479
ELEMENT_SET_NO = 999
REV_AT_EPOCH   = 345
BSTAR          = .15351E-3
MEAN_MOTION_DOT = .156E-5
MEAN_MOTION_DDOT = 0

CCSDS_OMM_VERS = 2.0
CREATION_DATE  = 
ORIGINATOR     = 

OBJECT_NAME    = SZ-20 MODULE
OBJECT_ID      = 2025-082C
CENTER_NAME    = EARTH
REF_FRAME      = TEME
TIME_SYSTEM    = UTC
MEAN_ELEMENT_THEORY = SGP/SGP4

EPOCH          = 2026-02-13T07:01:16.901472
MEAN_MOTION    = 15.62764588
ECCENTRICITY   = .00075781
INCLINATION    = 41.4801
RA_OF_ASC_NODE = 356.0296
ARG_OF_PERICENTER = 171.4719
MEAN_ANOMALY   = 188.6251

EPHEMERIS_TYPE = 0
CLASSIFICATION_TYPE = U
NORAD_CAT_ID   = 67481
ELEMENT_SET_NO = 999
REV_AT_EPOCH   = 27380
BSTAR          = .26471402E-3
MEAN_MOTION_DOT = .24261E-3
MEAN_MOTION_DDOT = 0

CCSDS_OMM_VERS = 2.0
CREATION_DATE  = 
ORIGINATOR     = 

OBJECT_NAME    = 2025-313BE
OBJECT_ID      = 2025-313BE
CENTER_NAME    = EARTH
REF_FRAME      = TEME
TIME_SYSTEM    = UTC
MEAN_ELEMENT_THEORY = SGP/SGP4

EPOCH          = 2026-02-13T17:24:40.532832
MEAN_MOTION    = 15.26073101
ECCENTRICITY   = .00084096
INCLINATION    = 97.4062
RA_OF_ASC_NODE = 121.5511
ARG_OF_PERICENTER = 72.6295
MEAN_ANOMALY   = 287.5863

EPHEMERIS_TYPE = 0
CLASSIFICATION_TYPE = U
NORAD_CAT_ID   = 67482
ELEMENT_SET_NO = 999
REV_AT_EPOCH   = 431
BSTAR          = .22230042E-2
MEAN_MOTION_DOT = .57653E-3
MEAN_MOTION_DDOT = 0

CCSDS_OMM_VERS = 2.0
CREATION_DATE  = 
ORIGINATOR     = 

OBJECT_NAME    = ION SCV-021
OBJECT_ID      = 2025-276DT
CENTER_NAME    = EARTH
REF_FRAME      = TEME
TIME_SYSTEM    = UTC
MEAN_ELEMENT_THEORY = SGP/SGP4

EPOCH          = 2026-02-03T04:28:31.154016
MEAN_MOTION    = 14.97059561
ECCENTRICITY   = .00113647
INCLINATION    = 97.5347
RA_OF_ASC_NODE = 109.4970
ARG_OF_PERICENTER = 207.9438
MEAN_ANOMALY   = 152.1175

EPHEMERIS_TYPE = 0
CLASSIFICATION_TYPE = U
NORAD_CAT_ID   = 67483
ELEMENT_SET_NO = 999
REV_AT_EPOCH   = 255
BSTAR          = -.1218394E-1
MEAN_MOTION_DOT = -.13788E-2
MEAN_MOTION_DDOT = 0

CCSDS_OMM_VERS = 2.0
CREATION_DATE  = 
ORIGINATOR     = 

OBJECT_NAME    = STARLINK-36551
OBJECT_ID      = 2026-012A
CENTER_NAME    = EARTH
REF_FRAME      = TEME
TIME_SYSTEM    = UTC
MEAN_ELEMENT_THEORY = SGP/SGP4

EPOCH          = 2026-02-13T22:00:01.999584
MEAN_MOTION    = 15.39259757
ECCENTRICITY   = .00008956
INCLINATION    = 43.0006
RA_OF_ASC_NODE = 89.1785
ARG_OF_PERICENTER = 295.0182
MEAN_ANOMALY   = 299.6068

EPHEMERIS_TYPE = 0
CLASSIFICATION_TYPE = U
NORAD_CAT_ID   = 67493
ELEMENT_SET_NO = 999
REV_AT_EPOCH   = 525
BSTAR          = -.52557006E-1
MEAN_MOTION_DOT = -.1877207E-1
MEAN_MOTION_DDOT = 0

CCSDS_OMM_VERS = 2.0
CREATION_DATE  = 
ORIGINATOR     = 

OBJECT_NAME    = STARLINK-36396
OBJECT_ID      = 2026-012B
CENTER_NAME    = EARTH
REF_FRAME      = TEME
TIME_SYSTEM    = UTC
MEAN_ELEMENT_THEORY = SGP/SGP4

EPOCH          = 2026-02-12T12:09:38.364192
MEAN_MOTION    = 15.50679657
ECCENTRICITY   = .00011125
INCLINATION    = 43.0004
RA_OF_ASC_NODE = 98.1000
ARG_OF_PERICENTER = 358.6780
MEAN_ANOMALY   = 1.4077

EPHEMERIS_TYPE = 0
CLASSIFICATION_TYPE = U
NORAD_CAT_ID   = 67494
ELEMENT_SET_NO = 999
REV_AT_EPOCH   = 389
BSTAR          = .15335285E-2
MEAN_MOTION_DOT = .91001E-3
MEAN_MOTION_DDOT = 0

CCSDS_OMM_VERS = 2.0
CREATION_DATE  = 
ORIGINATOR     = 

OBJECT_NAME    = STARLINK-36550
OBJECT_ID      = 2026-012C
CENTER_NAME    = EARTH
REF_FRAME      = TEME
TIME_SYSTEM    = UTC
MEAN_ELEMENT_THEORY = SGP/SGP4

EPOCH          = 2026-02-13T04:17:15.050688
MEAN_MOTION    = 15.50564110
ECCENTRICITY   = .00027375
INCLINATION    = 43.0016
RA_OF_ASC_NODE = 93.6684
ARG_OF_PERICENTER = 258.5376
MEAN_ANOMALY   = 101.5177

EPHEMERIS_TYPE = 0
CLASSIFICATION_TYPE = U
NORAD_CAT_ID   = 67495
ELEMENT_SET_NO = 999
REV_AT_EPOCH   = 400
BSTAR          = .11859973E-2
MEAN_MOTION_DOT = .69826E-3
MEAN_MOTION_DDOT = 0

